{
  "type": "FeatureCollection",
  "features": [
    {
      "type": "Feature",
      "properties": {
        "norad_id": 31246,
        "name": "FENGYUN 1C DEB",
        "group": "fengyun-1c-debris",
        "lat": -30.251715356408386,
        "lon": 20.20935799071835,
        "alt_km": 890.7066388946587,
        "timestamp": "2025-12-24T16:52:41.813437+00:00",
        "meta_object_name": "FENGYUN 1C DEB",
        "meta_object_id": "1999-025BMC",
        "meta_epoch": "2025-12-12T08:40:07.558176",
        "meta_mean_motion": 14.07203108,
        "meta_eccentricity": 0.01486979,
        "meta_inclination": 98.8179,
        "meta_ra_of_asc_node": 193.3588,
        "meta_arg_of_pericenter": 344.8205,
        "meta_mean_anomaly": 14.8526,
        "meta_ephemeris_type": 0,
        "meta_classification_type": "U",
        "meta_norad_cat_id": 31246,
        "meta_element_set_no": 999,
        "meta_rev_at_epoch": 61747,
        "meta_bstar": 0.003171684,
        "meta_mean_motion_dot": 5.838e-05,
        "meta_mean_motion_ddot": 0,
        "tle_line1": "1 31246U 99025BMC 25346.36119859  .00005838  00000+0  31717-2 0  9997",
        "tle_line2": "2 31246  98.8179 193.3588 0148697 344.8205  14.8526 14.07203108617475"
      },
      "geometry": {
        "type": "Point",
        "coordinates": [
          20.20935799071835,
          -30.251715356408386
        ]
      }
    },
    {
      "type": "Feature",
      "properties": {
        "norad_id": 31247,
        "name": "FENGYUN 1C DEB",
        "group": "fengyun-1c-debris",
        "lat": 35.36436057767379,
        "lon": 73.99683949646494,
        "alt_km": 890.8165059575913,
        "timestamp": "2025-12-24T16:52:41.813447+00:00",
        "meta_object_name": "FENGYUN 1C DEB",
        "meta_object_id": "1999-025BMD",
        "meta_epoch": "2025-12-19T03:38:56.942880",
        "meta_mean_motion": 14.05141398,
        "meta_eccentricity": 0.00591155,
        "meta_inclination": 99.3669,
        "meta_ra_of_asc_node": 241.5398,
        "meta_arg_of_pericenter": 45.1692,
        "meta_mean_anomaly": 112.4499,
        "meta_ephemeris_type": 0,
        "meta_classification_type": "U",
        "meta_norad_cat_id": 31247,
        "meta_element_set_no": 999,
        "meta_rev_at_epoch": 95611,
        "meta_bstar": 0.0010015357,
        "meta_mean_motion_dot": 1.595e-05,
        "meta_mean_motion_ddot": 0,
        "tle_line1": "1 31247U 99025BMD 25353.15204795  .00001595  00000+0  10015-2 0  9991",
        "tle_line2": "2 31247  99.3669 241.5398 0059115  45.1692 112.4499 14.05141398956119"
      },
      "geometry": {
        "type": "Point",
        "coordinates": [
          73.99683949646494,
          35.36436057767379
        ]
      }
    },
    {
      "type": "Feature",
      "properties": {
        "norad_id": 31248,
        "name": "FENGYUN 1C DEB",
        "group": "fengyun-1c-debris",
        "lat": -4.374564572574818,
        "lon": -124.54936173661333,
        "alt_km": 927.6962149722513,
        "timestamp": "2025-12-24T16:52:41.813457+00:00",
        "meta_object_name": "FENGYUN 1C DEB",
        "meta_object_id": "1999-025BME",
        "meta_epoch": "2025-12-18T15:54:42.813792",
        "meta_mean_motion": 13.92792265,
        "meta_eccentricity": 0.01098054,
        "meta_inclination": 99.2637,
        "meta_ra_of_asc_node": 50.1244,
        "meta_arg_of_pericenter": 295.1877,
        "meta_mean_anomaly": 220.4499,
        "meta_ephemeris_type": 0,
        "meta_classification_type": "U",
        "meta_norad_cat_id": 31248,
        "meta_element_set_no": 999,
        "meta_rev_at_epoch": 94906,
        "meta_bstar": 0.00044323631,
        "meta_mean_motion_dot": 5.57e-06,
        "meta_mean_motion_ddot": 0,
        "tle_line1": "1 31248U 99025BME 25352.66299553  .00000557  00000+0  44324-3 0  9991",
        "tle_line2": "2 31248  99.2637  50.1244 0109805 295.1877 220.4499 13.92792265949068"
      },
      "geometry": {
        "type": "Point",
        "coordinates": [
          -124.54936173661333,
          -4.374564572574818
        ]
      }
    },
    {
      "type": "Feature",
      "properties": {
        "norad_id": 31250,
        "name": "FENGYUN 1C DEB",
        "group": "fengyun-1c-debris",
        "lat": 78.13777283624792,
        "lon": 72.42560157744519,
        "alt_km": 969.1298549575895,
        "timestamp": "2025-12-24T16:52:41.813467+00:00",
        "meta_object_name": "FENGYUN 1C DEB",
        "meta_object_id": "1999-025BMG",
        "meta_epoch": "2025-12-24T00:59:57.049728",
        "meta_mean_motion": 14.03124049,
        "meta_eccentricity": 0.01329543,
        "meta_inclination": 98.3867,
        "meta_ra_of_asc_node": 207.2006,
        "meta_arg_of_pericenter": 265.9148,
        "meta_mean_anomaly": 92.6815,
        "meta_ephemeris_type": 0,
        "meta_classification_type": "U",
        "meta_norad_cat_id": 31250,
        "meta_element_set_no": 999,
        "meta_rev_at_epoch": 95676,
        "meta_bstar": 0.0010880463,
        "meta_mean_motion_dot": 1.79e-05,
        "meta_mean_motion_ddot": 0,
        "tle_line1": "1 31250U 99025BMG 25358.04163252  .00001790  00000+0  10880-2 0  9997",
        "tle_line2": "2 31250  98.3867 207.2006 0132954 265.9148  92.6815 14.03124049956762"
      },
      "geometry": {
        "type": "Point",
        "coordinates": [
          72.42560157744519,
          78.13777283624792
        ]
      }
    },
    {
      "type": "Feature",
      "properties": {
        "norad_id": 31252,
        "name": "FENGYUN 1C DEB",
        "group": "fengyun-1c-debris",
        "lat": -48.25573390342881,
        "lon": 26.65053655097497,
        "alt_km": 916.9089176713178,
        "timestamp": "2025-12-24T16:52:41.813477+00:00",
        "meta_object_name": "FENGYUN 1C DEB",
        "meta_object_id": "1999-025BMJ",
        "meta_epoch": "2025-12-24T07:06:34.390368",
        "meta_mean_motion": 14.40202801,
        "meta_eccentricity": 0.02142143,
        "meta_inclination": 98.3164,
        "meta_ra_of_asc_node": 16.8205,
        "meta_arg_of_pericenter": 137.4794,
        "meta_mean_anomaly": 224.3211,
        "meta_ephemeris_type": 0,
        "meta_classification_type": "U",
        "meta_norad_cat_id": 31252,
        "meta_element_set_no": 999,
        "meta_rev_at_epoch": 97373,
        "meta_bstar": 0.00029537403,
        "meta_mean_motion_dot": 1.176e-05,
        "meta_mean_motion_ddot": 0,
        "tle_line1": "1 31252U 99025BMJ 25358.29623137  .00001176  00000+0  29537-3 0  9997",
        "tle_line2": "2 31252  98.3164  16.8205 0214214 137.4794 224.3211 14.40202801973733"
      },
      "geometry": {
        "type": "Point",
        "coordinates": [
          26.65053655097497,
          -48.25573390342881
        ]
      }
    },
    {
      "type": "Feature",
      "properties": {
        "norad_id": 31253,
        "name": "FENGYUN 1C DEB",
        "group": "fengyun-1c-debris",
        "lat": -68.87153984479114,
        "lon": 88.15020115293844,
        "alt_km": 1016.0026899417808,
        "timestamp": "2025-12-24T16:52:41.813487+00:00",
        "meta_object_name": "FENGYUN 1C DEB",
        "meta_object_id": "1999-025BMK",
        "meta_epoch": "2025-12-21T10:31:09.949440",
        "meta_mean_motion": 14.03607251,
        "meta_eccentricity": 0.02906334,
        "meta_inclination": 99.0756,
        "meta_ra_of_asc_node": 60.4551,
        "meta_arg_of_pericenter": 66.7312,
        "meta_mean_anomaly": 296.4166,
        "meta_ephemeris_type": 0,
        "meta_classification_type": "U",
        "meta_norad_cat_id": 31253,
        "meta_element_set_no": 999,
        "meta_rev_at_epoch": 69120,
        "meta_bstar": 6.5782528e-05,
        "meta_mean_motion_dot": 1.04e-06,
        "meta_mean_motion_ddot": 0,
        "tle_line1": "1 31253U 99025BMK 25355.43830960  .00000104  00000+0  65783-4 0  9999",
        "tle_line2": "2 31253  99.0756  60.4551 0290633  66.7312 296.4166 14.03607251691202"
      },
      "geometry": {
        "type": "Point",
        "coordinates": [
          88.15020115293844,
          -68.87153984479114
        ]
      }
    },
    {
      "type": "Feature",
      "properties": {
        "norad_id": 31254,
        "name": "FENGYUN 1C DEB",
        "group": "fengyun-1c-debris",
        "lat": -42.85713478188571,
        "lon": 56.127120876415134,
        "alt_km": 870.755113032209,
        "timestamp": "2025-12-24T16:52:41.813497+00:00",
        "meta_object_name": "FENGYUN 1C DEB",
        "meta_object_id": "1999-025BML",
        "meta_epoch": "2025-12-20T21:58:05.064096",
        "meta_mean_motion": 14.36381036,
        "meta_eccentricity": 0.015173,
        "meta_inclination": 98.4611,
        "meta_ra_of_asc_node": 44.4666,
        "meta_arg_of_pericenter": 177.7656,
        "meta_mean_anomaly": 1.9855,
        "meta_ephemeris_type": 0,
        "meta_classification_type": "U",
        "meta_norad_cat_id": 31254,
        "meta_element_set_no": 999,
        "meta_rev_at_epoch": 97633,
        "meta_bstar": 0.00034331,
        "meta_mean_motion_dot": 1.099e-05,
        "meta_mean_motion_ddot": 0,
        "tle_line1": "1 31254U 99025BML 25354.91533639  .00001099  00000+0  34331-3 0  9993",
        "tle_line2": "2 31254  98.4611  44.4666 0151730 177.7656   1.9855 14.36381036976333"
      },
      "geometry": {
        "type": "Point",
        "coordinates": [
          56.127120876415134,
          -42.85713478188571
        ]
      }
    }
  ]
}